{
  "type": "FeatureCollection",
  "features": [
    {
      "type": "Feature",
      "properties": {
        "norad_id": 37781,
        "name": "HAIYANG-2A",
        "group": "resource",
        "lat": -78.7180290146459,
        "lon": 121.70739674666854,
        "alt_km": 976.4815365414543,
        "timestamp": "2025-12-22T11:33:20.086206+00:00",
        "meta_object_name": "HAIYANG-2A",
        "meta_object_id": "2011-043A",
        "meta_epoch": "2025-12-22T03:18:53.125632",
        "meta_mean_motion": 13.78835437,
        "meta_eccentricity": 0.0001623,
        "meta_inclination": 99.3371,
        "meta_ra_of_asc_node": 356.9277,
        "meta_arg_of_pericenter": 71.5317,
        "meta_mean_anomaly": 288.6011,
        "meta_ephemeris_type": 0,
        "meta_classification_type": "U",
        "meta_norad_cat_id": 37781,
        "meta_element_set_no": 999,
        "meta_rev_at_epoch": 72228,
        "meta_bstar": -0.00015137,
        "meta_mean_motion_dot": -1.98e-06,
        "meta_mean_motion_ddot": 0,
        "tle_line1": "1 37781U 11043A   25356.13811488 -.00000198  00000+0 -15137-3 0  9999",
        "tle_line2": "2 37781  99.3371 356.9277 0001623  71.5317 288.6011 13.78835437722281"
      },
      "geometry": {
        "type": "Point",
        "coordinates": [
          121.70739674666854,
          -78.7180290146459
        ]
      }
    },
    {
      "type": "Feature",
      "properties": {
        "norad_id": 37791,
        "name": "RASAT",
        "group": "resource",
        "lat": -76.45364353298696,
        "lon": -130.4573095305453,
        "alt_km": 685.998547514464,
        "timestamp": "2025-12-22T11:33:20.086216+00:00",
        "meta_object_name": "RASAT",
        "meta_object_id": "2011-044D",
        "meta_epoch": "2025-12-22T05:43:02.194176",
        "meta_mean_motion": 14.67921408,
        "meta_eccentricity": 0.0021447,
        "meta_inclination": 98.0652,
        "meta_ra_of_asc_node": 85.3554,
        "meta_arg_of_pericenter": 36.3954,
        "meta_mean_anomaly": 18.0778,
        "meta_ephemeris_type": 0,
        "meta_classification_type": "U",
        "meta_norad_cat_id": 37791,
        "meta_element_set_no": 999,
        "meta_rev_at_epoch": 76722,
        "meta_bstar": 9.0842e-05,
        "meta_mean_motion_dot": 4.72e-06,
        "meta_mean_motion_ddot": 0,
        "tle_line1": "1 37791U 11044D   25356.23821984  .00000472  00000+0  90842-4 0  9994",
        "tle_line2": "2 37791  98.0652  85.3554 0021447  36.3954  18.0778 14.67921408767224"
      },
      "geometry": {
        "type": "Point",
        "coordinates": [
          -130.4573095305453,
          -76.45364353298696
        ]
      }
    },
    {
      "type": "Feature",
      "properties": {
        "norad_id": 37841,
        "name": "SRMSAT",
        "group": "resource",
        "lat": 1.2226408039977883,
        "lon": 52.36376061944852,
        "alt_km": 846.9363999000097,
        "timestamp": "2025-12-22T11:33:20.086227+00:00",
        "meta_object_name": "SRMSAT",
        "meta_object_id": "2011-058D",
        "meta_epoch": "2025-12-21T21:00:00.616896",
        "meta_mean_motion": 14.11514404,
        "meta_eccentricity": 0.0011977,
        "meta_inclination": 19.9727,
        "meta_ra_of_asc_node": 52.6627,
        "meta_arg_of_pericenter": 53.5792,
        "meta_mean_anomaly": 101.7167,
        "meta_ephemeris_type": 0,
        "meta_classification_type": "U",
        "meta_norad_cat_id": 37841,
        "meta_element_set_no": 999,
        "meta_rev_at_epoch": 73273,
        "meta_bstar": 7.749e-05,
        "meta_mean_motion_dot": 4.07e-06,
        "meta_mean_motion_ddot": 0,
        "tle_line1": "1 37841U 11058D   25355.87500714  .00000407  00000+0  77490-4 0  9991",
        "tle_line2": "2 37841  19.9727  52.6627 0011977  53.5792 101.7167 14.11514404732734"
      },
      "geometry": {
        "type": "Point",
        "coordinates": [
          52.36376061944852,
          1.2226408039977883
        ]
      }
    },
    {
      "type": "Feature",
      "properties": {
        "norad_id": 38012,
        "name": "PLEIADES 1A",
        "group": "resource",
        "lat": 81.27924892895956,
        "lon": -0.6088751046906243,
        "alt_km": 689.5785600198797,
        "timestamp": "2025-12-22T11:33:20.086237+00:00",
        "meta_object_name": "PLEIADES 1A",
        "meta_object_id": "2011-076F",
        "meta_epoch": "2025-12-22T04:57:28.329696",
        "meta_mean_motion": 14.58568748,
        "meta_eccentricity": 0.0001122,
        "meta_inclination": 98.1818,
        "meta_ra_of_asc_node": 68.8292,
        "meta_arg_of_pericenter": 74.6204,
        "meta_mean_anomaly": 9.7418,
        "meta_ephemeris_type": 0,
        "meta_classification_type": "U",
        "meta_norad_cat_id": 38012,
        "meta_element_set_no": 999,
        "meta_rev_at_epoch": 74619,
        "meta_bstar": 4.2255e-05,
        "meta_mean_motion_dot": 1.51e-06,
        "meta_mean_motion_ddot": 0,
        "tle_line1": "1 38012U 11076F   25356.20657789  .00000151  00000+0  42255-4 0  9992",
        "tle_line2": "2 38012  98.1818  68.8292 0001122  74.6204   9.7418 14.58568748746197"
      },
      "geometry": {
        "type": "Point",
        "coordinates": [
          -0.6088751046906243,
          81.27924892895956
        ]
      }
    },
    {
      "type": "Feature",
      "properties": {
        "norad_id": 38038,
        "name": "ZIYUAN 1-02C (ZY 1-02C)",
        "group": "resource",
        "lat": -4.807911538465953,
        "lon": 63.03051679923954,
        "alt_km": 771.0849887176028,
        "timestamp": "2025-12-22T11:33:20.086247+00:00",
        "meta_object_name": "ZIYUAN 1-02C (ZY 1-02C)",
        "meta_object_id": "2011-079A",
        "meta_epoch": "2025-12-22T05:19:28.488000",
        "meta_mean_motion": 14.38021504,
        "meta_eccentricity": 0.0007506,
        "meta_inclination": 98.4326,
        "meta_ra_of_asc_node": 62.0608,
        "meta_arg_of_pericenter": 113.7303,
        "meta_mean_anomaly": 338.3341,
        "meta_ephemeris_type": 0,
        "meta_classification_type": "U",
        "meta_norad_cat_id": 38038,
        "meta_element_set_no": 999,
        "meta_rev_at_epoch": 73377,
        "meta_bstar": 0.00011354,
        "meta_mean_motion_dot": 3e-06,
        "meta_mean_motion_ddot": 0,
        "tle_line1": "1 38038U 11079A   25356.22185750  .00000300  00000+0  11354-3 0  9990",
        "tle_line2": "2 38038  98.4326  62.0608 0007506 113.7303 338.3341 14.38021504733774"
      },
      "geometry": {
        "type": "Point",
        "coordinates": [
          63.03051679923954,
          -4.807911538465953
        ]
      }
    },
    {
      "type": "Feature",
      "properties": {
        "norad_id": 38338,
        "name": "ARIRANG-3 (KOMPSAT-3)",
        "group": "resource",
        "lat": 80.28620728438607,
        "lon": -169.95278194230877,
        "alt_km": 683.1548496556461,
        "timestamp": "2025-12-22T11:33:20.086257+00:00",
        "meta_object_name": "ARIRANG-3 (KOMPSAT-3)",
        "meta_object_id": "2012-025B",
        "meta_epoch": "2025-12-22T04:33:03.893760",
        "meta_mean_motion": 14.61724481,
        "meta_eccentricity": 0.0004809,
        "meta_inclination": 98.3336,
        "meta_ra_of_asc_node": 310.8508,
        "meta_arg_of_pericenter": 305.3599,
        "meta_mean_anomaly": 54.7152,
        "meta_ephemeris_type": 0,
        "meta_classification_type": "U",
        "meta_norad_cat_id": 38338,
        "meta_element_set_no": 999,
        "meta_rev_at_epoch": 72548,
        "meta_bstar": 0.00011414,
        "meta_mean_motion_dot": 5.2e-06,
        "meta_mean_motion_ddot": 0,
        "tle_line1": "1 38338U 12025B   25356.18962840  .00000520  00000+0  11414-3 0  9994",
        "tle_line2": "2 38338  98.3336 310.8508 0004809 305.3599  54.7152 14.61724481725487"
      },
      "geometry": {
        "type": "Point",
        "coordinates": [
          -169.95278194230877,
          80.28620728438607
        ]
      }
    },
    {
      "type": "Feature",
      "properties": {
        "norad_id": 38709,
        "name": "EXACTVIEW-1 (ADS-1B)",
        "group": "resource",
        "lat": -62.65652335510668,
        "lon": -92.69659654309771,
        "alt_km": 814.8185081307956,
        "timestamp": "2025-12-22T11:33:20.086267+00:00",
        "meta_object_name": "EXACTVIEW-1 (ADS-1B)",
        "meta_object_id": "2012-039C",
        "meta_epoch": "2025-12-21T22:36:58.315104",
        "meta_mean_motion": 14.24911545,
        "meta_eccentricity": 0.0010224,
        "meta_inclination": 98.9638,
        "meta_ra_of_asc_node": 104.5255,
        "meta_arg_of_pericenter": 326.864,
        "meta_mean_anomaly": 33.1897,
        "meta_ephemeris_type": 0,
        "meta_classification_type": "U",
        "meta_norad_cat_id": 38709,
        "meta_element_set_no": 999,
        "meta_rev_at_epoch": 69746,
        "meta_bstar": 8.0889e-05,
        "meta_mean_motion_dot": 1.43e-06,
        "meta_mean_motion_ddot": 0,
        "tle_line1": "1 38709U 12039C   25355.94234161  .00000143  00000+0  80889-4 0  9996",
        "tle_line2": "2 38709  98.9638 104.5255 0010224 326.8640  33.1897 14.24911545697461"
      },
      "geometry": {
        "type": "Point",
        "coordinates": [
          -92.69659654309771,
          -62.65652335510668
        ]
      }
    }
  ]
}